name,location,latitude,longitude,description,city,state
Sweetgreen,"8 E 18th St, New York, NY 10003",40.738122,-73.991204,"Salad Restaurant, Vegan and Vegetarian Restaurant",NEW YORK CITY,NY
KazuNori: The Original Hand Roll Bar,"15 W 28th St, New York, NY 10001",40.745328,-73.988081,Sushi Restaurant,NEW YORK CITY,NY
Jua,"36 E 22nd St (btw Broadway & Park Ave S), New York, NY 10010",40.739781,-73.987732,Korean Restaurant,NEW YORK CITY,NY
Gramercy Tavern,"42 E 20th St (btwn Broadway & Park Ave), New York, NY 10003",40.738484,-73.988442,"Bar, New American Restaurant",NEW YORK CITY,NY
Cava,"325 Park Ave S (at E 24th St), New York, NY 10010",40.740891,-73.985665,Restaurant,NEW YORK CITY,NY
Breads Bakery,"18 E 16th St (btwn Union Sq W & 5th Ave), New York, NY 10003",40.736592,-73.99193,"Bakery, Restaurant",NEW YORK CITY,NY
Daily Provisions,"103 E 19th St (btwn Park Avenue S & Irving Pl), New York, NY 10003",40.73768,-73.987606,"Bakery, American Restaurant, Sandwich Spot",NEW YORK CITY,NY
Union Square Cafe,"101 E 19th St (at Park Ave), New York, NY 10003",40.73768,-73.987606,New American Restaurant,NEW YORK CITY,NY
Xi'an Famous Foods,"96 8th Ave (15th Street), New York, NY 10011",40.740154,-74.001808,"Burger Joint, Chinese Restaurant",NEW YORK CITY,NY
Shukette,"230 9th Ave (at W 24th St), New York, NY 10001",40.747368,-74.00039,Middle Eastern Restaurant,NEW YORK CITY,NY
Mah-Ze-Dahr Bakery,"28 Greenwich Ave (Charles Street), New York, NY 10011",40.735081,-73.999905,"Bakery, American Restaurant, French Restaurant",NEW YORK CITY,NY
4 Charles Prime Rib,"4 Charles St (Greenwich Ave), New York, NY 10014",40.735115,-74.000649,"American Restaurant, Steakhouse",NEW YORK CITY,NY
Los Mariscos,"409 W 15th St (9th Ave), New York, NY 10011",40.74215,-74.005774,"Taco Restaurant, Seafood Restaurant",NEW YORK CITY,NY
Soothr,"204 E 13th St (3rd Ave), New York, NY 10003",40.732238,-73.987349,"Cocktail Bar, Thai Restaurant",NEW YORK CITY,NY
Brooklyn Bagel & Coffee Company,"63 E 8th St (Mercer Street), New York, NY 10003",40.731055,-73.993197,"Bagel Shop, Restaurant, Coffee Shop",NEW YORK CITY,NY
Vitos Slices And Ices,"464 9th Ave (36th Street), New York, NY 10018",40.754449,-73.995247,"Pizzeria, Italian Restaurant",NEW YORK CITY,NY
The Mary Lane,"99 Bank St, New York, NY 10014",40.73669,-74.006213,Dining and Drinking,NEW YORK CITY,NY
L’Accolade,"302 Bleecker St (Barrow St), New York, NY 10014",40.732488,-74.003994,"Wine Bar, Bistro, French Restaurant",NEW YORK CITY,NY
Barbuto,"113 Horatio St, New York, NY 10014",40.73887,-74.009356,Italian Restaurant,NEW YORK CITY,NY
Court Street Grocers,"540 Laguardia Pl (btwn Bleecker & W 3rd St), New York, NY 10012",40.728856,-73.998699,"Deli, American Restaurant, Sandwich Spot",NEW YORK CITY,NY
Librae Bakery,"35 Cooper Sq, New York, NY 10003",40.727941,-73.990673,"Bakery, Restaurant",NEW YORK CITY,NY
Los Tacos No. 1,"229 W 43rd St (btwn 7th & 8th Ave), New York, NY 10036",40.75743,-73.987507,"Fast Food Restaurant, Latin American Restaurant, Taco Restaurant",NEW YORK CITY,NY
Los Tacos No. 1,"340 Lafayette St (btw Bleecker & Bond), New York, NY 10012",40.726213,-73.994709,Taco Restaurant,NEW YORK CITY,NY
Raku,"48 MacDougal St (King and Macdougal), New York, NY 10012",40.727296,-74.002523,"Udon Restaurant, Noodle Restaurant",NEW YORK CITY,NY
Torrisi,"275 Mulberry St (btw Prince & Houston), New York, NY 10012",40.724252,-73.995417,Italian Restaurant,NEW YORK CITY,NY
SUGARFISH by sushi nozawa,"202 Spring St (at Sullivan St), New York, NY 10012",40.725162,-74.003617,Sushi Restaurant,NEW YORK CITY,NY
Sunny and Annie's,"94 Avenue B (at E 6th St), New York, NY 10009",40.724676,-73.98177,"Deli, Sandwich Spot",NEW YORK CITY,NY
Thai Diner,"186 Mott St (at Kenmare), New York, NY 10012",40.720687,-73.995626,Thai Restaurant,NEW YORK CITY,NY
Sonnyboy,"65 Rivington St, New York, NY 10002",40.72051,-73.990207,"Cocktail Bar, American Restaurant, Australian Restaurant",NEW YORK CITY,NY
Quality Bistro,"120 W 55th St, New York, NY 10019",40.762999,-73.979119,"American Restaurant, French Restaurant, Steakhouse",NEW YORK CITY,NY
Marea,"240 Central Park S (at 59th St & Broadway), New York, NY 10019",40.767368,-73.981212,"Italian Restaurant, New American Restaurant, Seafood Restaurant",NEW YORK CITY,NY
Kiki's,"130 Division St (btwn Orchard & Ludlow St), New York, NY 10002",40.714589,-73.991763,"Greek Restaurant, Mediterranean Restaurant, Middle Eastern Restaurant",NEW YORK CITY,NY
Breads Bakery,"1890 Broadway, New York, NY 10023",40.771077,-73.98175,"Bakery, Coffee Shop, Restaurant",NEW YORK CITY,NY
Los Tacos No. 1,"136 Church St (btw Murray & Warren), New York, NY 10007",40.71429,-74.00873,Taco Restaurant,NEW YORK CITY,NY
Manhatta,"28 Liberty St, New York, NY 10005",40.707921,-74.008914,New American Restaurant,NEW YORK CITY,NY
Crown Shy,"70 Pine St, New York, NY 10005",40.706388,-74.007762,Dining and Drinking,NEW YORK CITY,NY
Up Thai,"1411 2nd Ave (btwn E 73rd St & E 74th St), New York, NY 10021",40.769939,-73.957834,Thai Restaurant,NEW YORK CITY,NY
Sweetgreen,"67 Wall St, New York, NY 10005",40.705507,-74.008425,"Salad Restaurant, Vegan and Vegetarian Restaurant",NEW YORK CITY,NY
"Levain Bakery – Original Location, 74th St, NYC","167 W 74th St (at Amsterdam Ave), New York, NY 10023",40.779913,-73.980304,"Bakery, Restaurant",NEW YORK CITY,NY
Jacob's Pickles,"509 Amsterdam Ave (btwn W 84th & W 85th St), New York, NY 10024",40.786628,-73.975496,"Bar, American Restaurant, Southern Food Restaurant",NEW YORK CITY,NY
Sottocasa Pizzeria,"227 Malcolm X Blvd, New York, NY 10027",40.805571,-73.947505,"Italian Restaurant, Pizzeria",NEW YORK CITY,NY
